{"type": "FeatureCollection", "features": [ {"type": "Feature", "properties": {"norad_id": 30411, "name": "FENGYUN 1C DEB", "group": "fengyun-1c-debris", "lat": -0.6792652218418812, "lon": -94.39335468104447, "alt_km": 858.301089616115, "timestamp": "2025-12-21T07:34:34.793181+00:00", "meta": {"OBJECT_NAME": "FENGYUN 1C DEB", "OBJECT_ID": "1999-025AEA", "EPOCH": "2025-12-20T17:55:57.409536", "MEAN_MOTION": 14.0768999, "ECCENTRICITY": 0.01233574, "INCLINATION": 98.5821, "RA_OF_ASC_NODE": 264.9637, "ARG_OF_PERICENTER": 84.0478, "MEAN_ANOMALY": 277.4735, "EPHEMERIS_TYPE": 0, "CLASSIFICATION_TYPE": "U", "NORAD_CAT_ID": 30411, "ELEMENT_SET_NO": 999, "REV_AT_EPOCH": 96096, "BSTAR": 0.0012987114, "MEAN_MOTION_DOT": 2.314e-05, "MEAN_MOTION_DDOT": 0}, "tle": {"line1": "1 30411U 99025AEA 25354.74719224  .00002314  00000+0  12987-2 0  9997", "line2": "2 30411  98.5821 264.9637 0123357  84.0478 277.4735 14.07689990960961"}}, "geometry": {"type": "Point", "coordinates": [-94.39335468104447, -0.6792652218418812]}}, {"type": "Feature", "properties": {"norad_id": 30413, "name": "FENGYUN 1C DEB", "group": "fengyun-1c-debris", "lat": 76.86176323676354, "lon": 165.15775730722976, "alt_km": 785.9211565836486, "timestamp": "2025-12-21T07:34:34.793190+00:00", "meta": {"OBJECT_NAME": "FENGYUN 1C DEB", "OBJECT_ID": "1999-025AEC", "EPOCH": "2025-12-20T14:40:44.317056", "MEAN_MOTION": 14.3261216, "ECCENTRICITY": 0.0044577, "INCLINATION": 102.0627, "RA_OF_ASC_NODE": 230.5505, "ARG_OF_PERICENTER": 195.7067, "MEAN_ANOMALY": 220.2771, "EPHEMERIS_TYPE": 0, "CLASSIFICATION_TYPE": "U", "NORAD_CAT_ID": 30413, "ELEMENT_SET_NO": 999, "REV_AT_EPOCH": 97252, "BSTAR": 0.0013294, "MEAN_MOTION_DOT": 3.578e-05, "MEAN_MOTION_DDOT": 0}, "tle": {"line1": "1 30413U 99025AEC 25354.61162404  .00003578  00000+0  13294-2 0  9992", "line2": "2 30413 102.0627 230.5505 0044577 195.7067 220.2771 14.32612160972525"}}, "geometry": {"type": "Point", "coordinates": [165.15775730722976, 76.86176323676354]}}, {"type": "Feature", "properties": {"norad_id": 30414, "name": "FENGYUN 1C DEB", "group": "fengyun-1c-debris", "lat": -40.98926635392311, "lon": -34.992486975965136, "alt_km": 761.4542366151945, "timestamp": "2025-12-21T07:34:34.793206+00:00", "meta": {"OBJECT_NAME": "FENGYUN 1C DEB", "OBJECT_ID": "1999-025AED", "EPOCH": "2025-12-20T08:47:03.088608", "MEAN_MOTION": 14.34252638, "ECCENTRICITY": 0.00581326, "INCLINATION": 99.0801, "RA_OF_ASC_NODE": 151.9985, "ARG_OF_PERICENTER": 166.8813, "MEAN_ANOMALY": 193.3898, "EPHEMERIS_TYPE": 0, "CLASSIFICATION_TYPE": "U", "NORAD_CAT_ID": 30414, "ELEMENT_SET_NO": 999, "REV_AT_EPOCH": 97196, "BSTAR": 0.0016407554, "MEAN_MOTION_DOT": 4.647e-05, "MEAN_MOTION_DDOT": 0}, "tle": {"line1": "1 30414U 99025AED 25354.36600797  .00004647  00000+0  16408-2 0  9995", "line2": "2 30414  99.0801 151.9985 0058132 166.8813 193.3898 14.34252638971962"}}, "geometry": {"type": "Point", "coordinates": [-34.992486975965136, -40.98926635392311]}}, {"type": "Feature", "properties": {"norad_id": 30415, "name": "FENGYUN 1C DEB", "group": "fengyun-1c-debris", "lat": 80.26999498368328, "lon": -41.78719066343759, "alt_km": 1156.8402421906576, "timestamp": "2025-12-21T07:34:34.793215+00:00", "meta": {"OBJECT_NAME": "FENGYUN 1C DEB", "OBJECT_ID": "1999-025AEE", "EPOCH": "2025-12-19T10:11:45.140064", "MEAN_MOTION": 13.68954565, "ECCENTRICITY": 0.023966, "INCLINATION": 99.6456, "RA_OF_ASC_NODE": 53.6804, "ARG_OF_PERICENTER": 252.151, "MEAN_ANOMALY": 246.4978, "EPHEMERIS_TYPE": 0, "CLASSIFICATION_TYPE": "U", "NORAD_CAT_ID": 30415, "ELEMENT_SET_NO": 999, "REV_AT_EPOCH": 93969, "BSTAR": 0.0011757, "MEAN_MOTION_DOT": 1.194e-05, "MEAN_MOTION_DDOT": 0}, "tle": {"line1": "1 30415U 99025AEE 25353.42482801  .00001194  00000+0  11757-2 0  9992", "line2": "2 30415  99.6456  53.6804 0239660 252.1510 246.4978 13.68954565939690"}}, "geometry": {"type": "Point", "coordinates": [-41.78719066343759, 80.26999498368328]}}, {"type": "Feature", "properties": {"norad_id": 30416, "name": "FENGYUN 1C DEB", "group": "fengyun-1c-debris", "lat": 12.830175059870454, "lon": -158.50197378788357, "alt_km": 845.2535679292641, "timestamp": "2025-12-21T07:34:34.793224+00:00", "meta": {"OBJECT_NAME": "FENGYUN 1C DEB", "OBJECT_ID": "1999-025AEF", "EPOCH": "2025-12-20T13:39:49.794048", "MEAN_MOTION": 14.02641219, "ECCENTRICITY": 0.0055736, "INCLINATION": 98.8352, "RA_OF_ASC_NODE": 18.7441, "ARG_OF_PERICENTER": 168.0877, "MEAN_ANOMALY": 192.1623, "EPHEMERIS_TYPE": 0, "CLASSIFICATION_TYPE": "U", "NORAD_CAT_ID": 30416, "ELEMENT_SET_NO": 999, "REV_AT_EPOCH": 96734, "BSTAR": 0.00041688, "MEAN_MOTION_DOT": 6.09e-06, "MEAN_MOTION_DDOT": 0}, "tle": {"line1": "1 30416U 99025AEF 25354.56932632  .00000609  00000+0  41688-3 0  9998", "line2": "2 30416  98.8352  18.7441 0055736 168.0877 192.1623 14.02641219967342"}}, "geometry": {"type": "Point", "coordinates": [-158.50197378788357, 12.830175059870454]}}, {"type": "Feature", "properties": {"norad_id": 30417, "name": "FENGYUN 1C DEB", "group": "fengyun-1c-debris", "lat": 33.89376246477672, "lon": -20.825763683665176, "alt_km": 818.6126129248914, "timestamp": "2025-12-21T07:34:34.793235+00:00", "meta": {"OBJECT_NAME": "FENGYUN 1C DEB", "OBJECT_ID": "1999-025AEG", "EPOCH": "2025-12-20T21:31:50.160576", "MEAN_MOTION": 14.14670943, "ECCENTRICITY": 0.00646235, "INCLINATION": 98.6934, "RA_OF_ASC_NODE": 344.6664, "ARG_OF_PERICENTER": 96.985, "MEAN_ANOMALY": 327.5827, "EPHEMERIS_TYPE": 0, "CLASSIFICATION_TYPE": "U", "NORAD_CAT_ID": 30417, "ELEMENT_SET_NO": 999, "REV_AT_EPOCH": 97504, "BSTAR": 0.00020271571, "MEAN_MOTION_DOT": 3.56e-06, "MEAN_MOTION_DDOT": 0}, "tle": {"line1": "1 30417U 99025AEG 25354.89710834  .00000356  00000+0  20272-3 0  9998", "line2": "2 30417  98.6934 344.6664 0064623  96.9850 327.5827 14.14670943975045"}}, "geometry": {"type": "Point", "coordinates": [-20.825763683665176, 33.89376246477672]}}, {"type": "Feature", "properties": {"norad_id": 30418, "name": "FENGYUN 1C DEB", "group": "fengyun-1c-debris", "lat": 18.335556806116564, "lon": -21.01924841617269, "alt_km": 592.405702969827, "timestamp": "2025-12-21T07:34:34.793245+00:00", "meta": {"OBJECT_NAME": "FENGYUN 1C DEB", "OBJECT_ID": "1999-025AEH", "EPOCH": "2025-12-20T16:35:33.180864", "MEAN_MOTION": 14.84309429, "ECCENTRICITY": 0.01111261, "INCLINATION": 98.8404, "RA_OF_ASC_NODE": 155.3327, "ARG_OF_PERICENTER": 90.427, "MEAN_ANOMALY": 335.5789, "EPHEMERIS_TYPE": 0, "CLASSIFICATION_TYPE": "U", "NORAD_CAT_ID": 30418, "ELEMENT_SET_NO": 999, "REV_AT_EPOCH": 710, "BSTAR": 0.00048561773, "MEAN_MOTION_DOT": 4.476e-05, "MEAN_MOTION_DDOT": 0}, "tle": {"line1": "1 30418U 99025AEH 25354.69135626  .00004476  00000+0  48562-3 0  9996", "line2": "2 30418  98.8404 155.3327 0111126  90.4270 335.5789 14.84309429  7103"}}, "geometry": {"type": "Point", "coordinates": [-21.01924841617269, 18.335556806116564]}}, {"type": "Feature", "properties": {"norad_id": 30419, "name": "FENGYUN 1C DEB", "group": "fengyun-1c-debris", "lat": 22.336207207305026, "lon": -61.384212730430235, "alt_km": 796.0251702033956, "timestamp": "2025-12-21T07:34:34.793254+00:00", "meta": {"OBJECT_NAME": "FENGYUN 1C DEB", "OBJECT_ID": "1999-025AEJ", "EPOCH": "2025-12-20T19:54:12.713184", "MEAN_MOTION": 14.1806334, "ECCENTRICITY": 0.00528771, "INCLINATION": 99.2415, "RA_OF_ASC_NODE": 301.9454, "ARG_OF_PERICENTER": 2.5674, "MEAN_ANOMALY": 58.4193, "EPHEMERIS_TYPE": 0, "CLASSIFICATION_TYPE": "U", "NORAD_CAT_ID": 30419, "ELEMENT_SET_NO": 999, "REV_AT_EPOCH": 97463, "BSTAR": 0.00058482881, "MEAN_MOTION_DOT": 1.168e-05, "MEAN_MOTION_DDOT": 0}, "tle": {"line1": "1 30419U 99025AEJ 25354.82931381  .00001168  00000+0  58483-3 0  9992", "line2": "2 30419  99.2415 301.9454 0052877   2.5674  58.4193 14.18063340974637"}}, "geometry": {"type": "Point", "coordinates": [-61.384212730430235, 22.336207207305026]}}, {"type": "Feature", "properties": {"norad_id": 30432, "name": "FENGYUN 1C DEB", "group": "fengyun-1c-debris", "lat": -6.48588274155114, "lon": -104.5185573842902, "alt_km": 714.6113394331906, "timestamp": "2025-12-21T07:34:34.793263+00:00", "meta": {"OBJECT_NAME": "FENGYUN 1C DEB", "OBJECT_ID": "1999-025AET", "EPOCH": "2025-12-20T23:16:20.762400", "MEAN_MOTION": 14.40712911, "ECCENTRICITY": 0.00825273, "INCLINATION": 98.8359, "RA_OF_ASC_NODE": 254.1109, "ARG_OF_PERICENTER": 314.5258, "MEAN_ANOMALY": 44.9207, "EPHEMERIS_TYPE": 0, "CLASSIFICATION_TYPE": "U", "NORAD_CAT_ID": 30432, "ELEMENT_SET_NO": 999, "REV_AT_EPOCH": 98853, "BSTAR": 0.0004729625, "MEAN_MOTION_DOT": 1.524e-05, "MEAN_MOTION_DDOT": 0}, "tle": {"line1": "1 30432U 99025AET 25354.96968475  .00001524  00000+0  47296-3 0  9992", "line2": "2 30432  98.8359 254.1109 0082527 314.5258  44.9207 14.40712911988539"}}, "geometry": {"type": "Point", "coordinates": [-104.5185573842902, -6.48588274155114]}}, {"type": "Feature", "properties": {"norad_id": 30434, "name": "FENGYUN 1C DEB", "group": "fengyun-1c-debris", "lat": 40.21965596780001, "lon": -25.838191259439224, "alt_km": 1009.1119511355018, "timestamp": "2025-12-21T07:34:34.793273+00:00", "meta": {"OBJECT_NAME": "FENGYUN 1C DEB", "OBJECT_ID": "1999-025AEV", "EPOCH": "2025-12-20T21:21:36.044064", "MEAN_MOTION": 13.90657588, "ECCENTRICITY": 0.01209769, "INCLINATION": 98.9997, "RA_OF_ASC_NODE": 341.4513, "ARG_OF_PERICENTER": 208.9067, "MEAN_ANOMALY": 222.3677, "EPHEMERIS_TYPE": 0, "CLASSIFICATION_TYPE": "U", "NORAD_CAT_ID": 30434, "ELEMENT_SET_NO": 999, "REV_AT_EPOCH": 95820, "BSTAR": 0.00023128898, "MEAN_MOTION_DOT": 2.63e-06, "MEAN_MOTION_DDOT": 0}, "tle": {"line1": "1 30434U 99025AEV 25354.89000051  .00000263  00000+0  23129-3 0  9991", "line2": "2 30434  98.9997 341.4513 0120976 208.9067 222.3677 13.90657588958200"}}, "geometry": {"type": "Point", "coordinates": [-25.838191259439224, 40.21965596780001]}}]}